{"type": "FeatureCollection", "features": [ {"type": "Feature", "properties": {"norad_id": 28649, "name": "IRS-P5 (CARTOSAT-1)", "group": "resource", "lat": 12.639486566250268, "lon": -157.02027914186158, "alt_km": 598.0834797624548, "timestamp": "2025-12-21T05:44:51.232296+00:00", "meta": {"OBJECT_NAME": "IRS-P5 (CARTOSAT-1)", "OBJECT_ID": "2005-017A", "EPOCH": "2025-12-20T19:19:56.973792", "MEAN_MOTION": 14.90429069, "ECCENTRICITY": 7.588e-05, "INCLINATION": 97.5485, "RA_OF_ASC_NODE": 20.861, "ARG_OF_PERICENTER": 52.6097, "MEAN_ANOMALY": 307.519, "EPHEMERIS_TYPE": 0, "CLASSIFICATION_TYPE": "U", "NORAD_CAT_ID": 28649, "ELEMENT_SET_NO": 999, "REV_AT_EPOCH": 11724, "BSTAR": 0.0001066612, "MEAN_MOTION_DOT": 9.87e-06, "MEAN_MOTION_DDOT": 0}, "tle": {"line1": "1 28649U 05017A   25354.80552053  .00000987  00000+0  10666-3 0  9994", "line2": "2 28649  97.5485  20.8610 0000758  52.6097 307.5190 14.90429069117249"}}, "geometry": {"type": "Point", "coordinates": [-157.02027914186158, 12.639486566250268]}}, {"type": "Feature", "properties": {"norad_id": 28893, "name": "SINAH 1", "group": "resource", "lat": 70.79220389401388, "lon": 99.17359305931883, "alt_km": 664.9856077094364, "timestamp": "2025-12-21T05:44:51.232307+00:00", "meta": {"OBJECT_NAME": "SINAH 1", "OBJECT_ID": "2005-043D", "EPOCH": "2025-12-20T22:51:21.531456", "MEAN_MOTION": 14.63970356, "ECCENTRICITY": 0.00156563, "INCLINATION": 98.2608, "RA_OF_ASC_NODE": 123.5317, "ARG_OF_PERICENTER": 112.9759, "MEAN_ANOMALY": 247.3097, "EPHEMERIS_TYPE": 0, "CLASSIFICATION_TYPE": "U", "NORAD_CAT_ID": 28893, "ELEMENT_SET_NO": 999, "REV_AT_EPOCH": 7444, "BSTAR": 6.5224676e-05, "MEAN_MOTION_DOT": 2.93e-06, "MEAN_MOTION_DDOT": 0}, "tle": {"line1": "1 28893U 05043D   25354.95233254  .00000293  00000+0  65225-4 0  9991", "line2": "2 28893  98.2608 123.5317 0015656 112.9759 247.3097 14.63970356 74449"}}, "geometry": {"type": "Point", "coordinates": [99.17359305931883, 70.79220389401388]}}, {"type": "Feature", "properties": {"norad_id": 29079, "name": "EROS B", "group": "resource", "lat": 67.94311133244055, "lon": 93.66724074789946, "alt_km": 351.130586840889, "timestamp": "2025-12-21T05:44:51.232317+00:00", "meta": {"OBJECT_NAME": "EROS B", "OBJECT_ID": "2006-014A", "EPOCH": "2025-12-20T21:48:34.915680", "MEAN_MOTION": 15.70744469, "ECCENTRICITY": 0.00035825, "INCLINATION": 97.3463, "RA_OF_ASC_NODE": 111.887, "ARG_OF_PERICENTER": 311.4838, "MEAN_ANOMALY": 48.6116, "EPHEMERIS_TYPE": 0, "CLASSIFICATION_TYPE": "U", "NORAD_CAT_ID": 29079, "ELEMENT_SET_NO": 999, "REV_AT_EPOCH": 9208, "BSTAR": 0.0010642219, "MEAN_MOTION_DOT": 0.00133477, "MEAN_MOTION_DDOT": 0}, "tle": {"line1": "1 29079U 06014A   25354.90873745  .00133477  00000+0  10642-2 0  9999", "line2": "2 29079  97.3463 111.8870 0003582 311.4838  48.6116 15.70744469 92085"}}, "geometry": {"type": "Point", "coordinates": [93.66724074789946, 67.94311133244055]}}, {"type": "Feature", "properties": {"norad_id": 29228, "name": "RESURS-DK 1", "group": "resource", "lat": 41.58165166384403, "lon": 98.79734494923837, "alt_km": 529.7934291256761, "timestamp": "2025-12-21T05:44:51.232328+00:00", "meta": {"OBJECT_NAME": "RESURS-DK 1", "OBJECT_ID": "2006-021A", "EPOCH": "2025-12-20T16:50:56.206752", "MEAN_MOTION": 15.12200991, "ECCENTRICITY": 0.00068548, "INCLINATION": 69.9339, "RA_OF_ASC_NODE": 81.261, "ARG_OF_PERICENTER": 252.2232, "MEAN_ANOMALY": 107.8186, "EPHEMERIS_TYPE": 0, "CLASSIFICATION_TYPE": "U", "NORAD_CAT_ID": 29228, "ELEMENT_SET_NO": 999, "REV_AT_EPOCH": 7558, "BSTAR": 0.00010511178, "MEAN_MOTION_DOT": 1.712e-05, "MEAN_MOTION_DDOT": 0}, "tle": {"line1": "1 29228U 06021A   25354.70203943  .00001712  00000+0  10511-3 0  9990", "line2": "2 29228  69.9339  81.2610 0006854 252.2232 107.8186 15.12200991 75589"}}, "geometry": {"type": "Point", "coordinates": [98.79734494923837, 41.58165166384403]}}, {"type": "Feature", "properties": {"norad_id": 29268, "name": "ARIRANG-2 (KOMPSAT-2)", "group": "resource", "lat": -5.803475879639355, "lon": -175.90140365774832, "alt_km": 679.8639522641215, "timestamp": "2025-12-21T05:44:51.232338+00:00", "meta": {"OBJECT_NAME": "ARIRANG-2 (KOMPSAT-2)", "OBJECT_ID": "2006-031A", "EPOCH": "2025-12-20T23:54:48.680928", "MEAN_MOTION": 14.6450107, "ECCENTRICITY": 0.00131533, "INCLINATION": 97.8253, "RA_OF_ASC_NODE": 183.0666, "ARG_OF_PERICENTER": 280.8405, "MEAN_ANOMALY": 232.4541, "EPHEMERIS_TYPE": 0, "CLASSIFICATION_TYPE": "U", "NORAD_CAT_ID": 29268, "ELEMENT_SET_NO": 999, "REV_AT_EPOCH": 3539, "BSTAR": 9.0456959e-05, "MEAN_MOTION_DOT": 4.35e-06, "MEAN_MOTION_DDOT": 0}, "tle": {"line1": "1 29268U 06031A   25354.99639677  .00000435  00000+0  90457-4 0  9992", "line2": "2 29268  97.8253 183.0666 0013153 280.8405 232.4541 14.64501070 35392"}}, "geometry": {"type": "Point", "coordinates": [-175.90140365774832, -5.803475879639355]}}, {"type": "Feature", "properties": {"norad_id": 29709, "name": "LAPAN-TUBSAT", "group": "resource", "lat": -35.7862353275309, "lon": 159.6593498043579, "alt_km": 626.8592231689245, "timestamp": "2025-12-21T05:44:51.232349+00:00", "meta": {"OBJECT_NAME": "LAPAN-TUBSAT", "OBJECT_ID": "2007-001A", "EPOCH": "2025-12-20T22:18:46.338336", "MEAN_MOTION": 14.85681405, "ECCENTRICITY": 0.00133438, "INCLINATION": 98.1251, "RA_OF_ASC_NODE": 345.2543, "ARG_OF_PERICENTER": 50.0812, "MEAN_ANOMALY": 310.1573, "EPHEMERIS_TYPE": 0, "CLASSIFICATION_TYPE": "U", "NORAD_CAT_ID": 29709, "ELEMENT_SET_NO": 999, "REV_AT_EPOCH": 2468, "BSTAR": 7.2754839e-05, "MEAN_MOTION_DOT": 5.74e-06, "MEAN_MOTION_DDOT": 0}, "tle": {"line1": "1 29709U 07001A   25354.92970299  .00000574  00000+0  72755-4 0  9996", "line2": "2 29709  98.1251 345.2543 0013343  50.0812 310.1573 14.85681405 24683"}}, "geometry": {"type": "Point", "coordinates": [159.6593498043579, -35.7862353275309]}}, {"type": "Feature", "properties": {"norad_id": 31113, "name": "HAIYANG-1B", "group": "resource", "lat": -48.93355840742657, "lon": 149.48394472579832, "alt_km": 803.400249351339, "timestamp": "2025-12-21T05:44:51.232360+00:00", "meta": {"OBJECT_NAME": "HAIYANG-1B", "OBJECT_ID": "2007-010A", "EPOCH": "2025-12-20T20:17:13.259040", "MEAN_MOTION": 14.30967553, "ECCENTRICITY": 0.00138665, "INCLINATION": 98.3321, "RA_OF_ASC_NODE": 338.7888, "ARG_OF_PERICENTER": 14.9776, "MEAN_ANOMALY": 345.1816, "EPHEMERIS_TYPE": 0, "CLASSIFICATION_TYPE": "U", "NORAD_CAT_ID": 31113, "ELEMENT_SET_NO": 999, "REV_AT_EPOCH": 97512, "BSTAR": 4.2055658e-05, "MEAN_MOTION_DOT": 6.9e-07, "MEAN_MOTION_DDOT": 0}, "tle": {"line1": "1 31113U 07010A   25354.84529235  .00000069  00000+0  42056-4 0  9999", "line2": "2 31113  98.3321 338.7888 0013866  14.9776 345.1816 14.30967553975125"}}, "geometry": {"type": "Point", "coordinates": [149.48394472579832, -48.93355840742657]}}, {"type": "Feature", "properties": {"norad_id": 31598, "name": "COSMO-SKYMED 1", "group": "resource", "lat": 57.85247669801324, "lon": 13.43217287179125, "alt_km": 573.4140586021495, "timestamp": "2025-12-21T05:44:51.232371+00:00", "meta": {"OBJECT_NAME": "COSMO-SKYMED 1", "OBJECT_ID": "2007-023A", "EPOCH": "2025-12-20T22:47:09.130272", "MEAN_MOTION": 14.95824569, "ECCENTRICITY": 0.00015611, "INCLINATION": 97.8838, "RA_OF_ASC_NODE": 180.4025, "ARG_OF_PERICENTER": 82.7784, "MEAN_ANOMALY": 277.3614, "EPHEMERIS_TYPE": 0, "CLASSIFICATION_TYPE": "U", "NORAD_CAT_ID": 31598, "ELEMENT_SET_NO": 999, "REV_AT_EPOCH": 313, "BSTAR": 0.00024449161, "MEAN_MOTION_DOT": 2.671e-05, "MEAN_MOTION_DDOT": 0}, "tle": {"line1": "1 31598U 07023A   25354.94941123  .00002671  00000+0  24449-3 0  9991", "line2": "2 31598  97.8838 180.4025 0001561  82.7784 277.3614 14.95824569  3130"}}, "geometry": {"type": "Point", "coordinates": [13.43217287179125, 57.85247669801324]}}, {"type": "Feature", "properties": {"norad_id": 31698, "name": "TERRASAR-X", "group": "resource", "lat": 49.05943326280894, "lon": -170.83347007155564, "alt_km": 503.02378644616783, "timestamp": "2025-12-21T05:44:51.232382+00:00", "meta": {"OBJECT_NAME": "TERRASAR-X", "OBJECT_ID": "2007-026A", "EPOCH": "2025-12-20T11:47:12.844032", "MEAN_MOTION": 15.19153914, "ECCENTRICITY": 0.0001874, "INCLINATION": 97.4453, "RA_OF_ASC_NODE": 359.7585, "ARG_OF_PERICENTER": 92.6145, "MEAN_ANOMALY": 267.5304, "EPHEMERIS_TYPE": 0, "CLASSIFICATION_TYPE": "U", "NORAD_CAT_ID": 31698, "ELEMENT_SET_NO": 999, "REV_AT_EPOCH": 2609, "BSTAR": 3.1273e-05, "MEAN_MOTION_DOT": 5.9e-06, "MEAN_MOTION_DDOT": 0}, "tle": {"line1": "1 31698U 07026A   25354.49112088  .00000590  00000+0  31273-4 0  9997", "line2": "2 31698  97.4453 359.7585 0001874  92.6145 267.5304 15.19153914 26093"}}, "geometry": {"type": "Point", "coordinates": [-170.83347007155564, 49.05943326280894]}}, {"type": "Feature", "properties": {"norad_id": 32060, "name": "WORLDVIEW-1 (WV-1)", "group": "resource", "lat": -61.30946755671028, "lon": 126.30353792499527, "alt_km": 500.52136402053384, "timestamp": "2025-12-21T05:44:51.232392+00:00", "meta": {"OBJECT_NAME": "WORLDVIEW-1 (WV-1)", "OBJECT_ID": "2007-041A", "EPOCH": "2025-12-20T18:59:18.405600", "MEAN_MOTION": 15.23882673, "ECCENTRICITY": 0.00034699, "INCLINATION": 97.3825, "RA_OF_ASC_NODE": 112.1576, "ARG_OF_PERICENTER": 9.726, "MEAN_ANOMALY": 350.4044, "EPHEMERIS_TYPE": 0, "CLASSIFICATION_TYPE": "U", "NORAD_CAT_ID": 32060, "ELEMENT_SET_NO": 999, "REV_AT_EPOCH": 1570, "BSTAR": 0.00023844898, "MEAN_MOTION_DOT": 5.686e-05, "MEAN_MOTION_DDOT": 0}, "tle": {"line1": "1 32060U 07041A   25354.79118525  .00005686  00000+0  23845-3 0  9999", "line2": "2 32060  97.3825 112.1576 0003469   9.7260 350.4044 15.23882673 15704"}}, "geometry": {"type": "Point", "coordinates": [126.30353792499527, -61.30946755671028]}}]}